ONEWEB-0634             
1 56075U 23043AF  26124.11170737 -.00000114  00000+0 -33794-3 0  9993
2 56075  87.8962 268.0172 0001576 105.5601 254.5703 13.15549368150601
ONEWEB-0635             
1 56076U 23043AG  26124.10696139 -.00000107  00000+0 -31960-3 0  9997
2 56076  87.8972 267.9771 0002110 100.6194 259.5174 13.15548664150632
ONEWEB-0636             
1 56077U 23043AH  26124.09903484  .00000033  00000+0  53476-4 0  9993
2 56077  87.8964 267.9883 0002039 100.7611 259.3749 13.15549001150613
ONEWEB-0637             
1 56078U 23043AJ  26124.09269503  .00000071  00000+0  15319-3 0  9996
2 56078  87.8961 268.0070 0001889 108.2637 251.8699 13.15548781150631
ONEWEB-0647             
1 56079U 23043AK  26124.08792800  .00000077  00000+0  16994-3 0  9993
2 56079  87.8961 268.0203 0001945  95.3834 264.7518 13.15549668150625
ONEWEB-0651             
1 56080U 23043AL  26124.15924758  .00000282  00000+0  71581-3 0  9993
2 56080  87.8960 268.0002 0002010 104.4273 255.7081 13.15549080151833
ONEWEB-0718             
1 56081U 23043AM  26124.15450240  .00000133  00000+0  31935-3 0  9998
2 56081  87.8959 267.9817 0001332 104.8027 255.3251 13.15547735150649
ONEWEB-0561             
1 56710U 23068A   26123.88004330  .00000042  00000+0  70423-4 0  9993
2 56710  87.9149 283.2830 0002221  94.4274 265.7113 13.20769959143657
ONEWEB-0668             
1 56711U 23068B   26124.04669630 -.00000043  00000+0 -14591-3 0  9999
2 56711  87.9097 237.5356 0001692 117.3500 242.7803 13.16595007145977
ONEWEB-0676             
1 56712U 23068C   26124.05461916  .00000178  00000+0  43170-3 0  9990
2 56712  87.9094 237.5411 0002322 103.8211 256.3179 13.16592822145897
ONEWEB-0677             
1 56713U 23068D   26124.17202288  .00000030  00000+0  41895-4 0  9999
2 56713  87.9147 283.2168 0001939 107.9915 252.1430 13.20770120143990
ONEWEB-0678             
1 56714U 23068E   26124.12279653 -.00000119  00000+0 -34987-3 0  9998
2 56714  87.8971 267.9758 0001963  90.5066 269.6290 13.15549395143494
ONEWEB-0679             
1 56715U 23068F   26124.01345029  .00000028  00000+0  40557-4 0  9996
2 56715  87.9101 237.5399 0002132 117.9585 242.1761 13.16595408145919
ONEWEB-0680             
1 56716U 23068G   26124.11628663  .00000001  00000+0 -29986-4 0  9991
2 56716  87.9239 252.7399 0001791 117.3617 242.7699 13.21824355145278
ONEWEB-0681             
1 56717U 23068H   26124.09692238 -.00000062  00000+0 -18249-3 0  9995
2 56717  87.9229 252.7473 0002925 104.0176 256.1284 13.21828510145269
ONEWEB-0682             
1 56718U 23068J   26124.14655249  .00000118  00000+0  27834-3 0  9993
2 56718  87.8966 267.9727 0001684 116.3467 243.7837 13.15550053143662
