[{"OBJECT_NAME":"ONEWEB-0634","OBJECT_ID":"2023-043AF","EPOCH":"2026-05-04T02:40:51.516768","MEAN_MOTION":13.15549368,"ECCENTRICITY":0.0001576,"INCLINATION":87.8962,"RA_OF_ASC_NODE":268.0172,"ARG_OF_PERICENTER":105.5601,"MEAN_ANOMALY":254.5703,"EPHEMERIS_TYPE":0,"CLASSIFICATION_TYPE":"U","NORAD_CAT_ID":56075,"ELEMENT_SET_NO":999,"REV_AT_EPOCH":15060,"BSTAR":-0.00033794,"MEAN_MOTION_DOT":-1.14e-06,"MEAN_MOTION_DDOT":0.0},{"OBJECT_NAME":"ONEWEB-0635","OBJECT_ID":"2023-043AG","EPOCH":"2026-05-04T02:34:01.464096","MEAN_MOTION":13.15548664,"ECCENTRICITY":0.000211,"INCLINATION":87.8972,"RA_OF_ASC_NODE":267.9771,"ARG_OF_PERICENTER":100.6194,"MEAN_ANOMALY":259.5174,"EPHEMERIS_TYPE":0,"CLASSIFICATION_TYPE":"U","NORAD_CAT_ID":56076,"ELEMENT_SET_NO":999,"REV_AT_EPOCH":15063,"BSTAR":-0.0003196,"MEAN_MOTION_DOT":-1.07e-06,"MEAN_MOTION_DDOT":0.0},{"OBJECT_NAME":"ONEWEB-0636","OBJECT_ID":"2023-043AH","EPOCH":"2026-05-04T02:22:36.610176","MEAN_MOTION":13.15549001,"ECCENTRICITY":0.0002039,"INCLINATION":87.8964,"RA_OF_ASC_NODE":267.9883,"ARG_OF_PERICENTER":100.7611,"MEAN_ANOMALY":259.3749,"EPHEMERIS_TYPE":0,"CLASSIFICATION_TYPE":"U","NORAD_CAT_ID":56077,"ELEMENT_SET_NO":999,"REV_AT_EPOCH":15061,"BSTAR":5.3476e-05,"MEAN_MOTION_DOT":3.3e-07,"MEAN_MOTION_DDOT":0.0},{"OBJECT_NAME":"ONEWEB-0637","OBJECT_ID":"2023-043AJ","EPOCH":"2026-05-04T02:13:28.850592","MEAN_MOTION":13.15548781,"ECCENTRICITY":0.0001889,"INCLINATION":87.8961,"RA_OF_ASC_NODE":268.007,"ARG_OF_PERICENTER":108.2637,"MEAN_ANOMALY":251.8699,"EPHEMERIS_TYPE":0,"CLASSIFICATION_TYPE":"U","NORAD_CAT_ID":56078,"ELEMENT_SET_NO":999,"REV_AT_EPOCH":15063,"BSTAR":0.00015319,"MEAN_MOTION_DOT":7.1e-07,"MEAN_MOTION_DDOT":0.0},{"OBJECT_NAME":"ONEWEB-0647","OBJECT_ID":"2023-043AK","EPOCH":"2026-05-04T02:06:36.979200","MEAN_MOTION":13.15549668,"ECCENTRICITY":0.0001945,"INCLINATION":87.8961,"RA_OF_ASC_NODE":268.0203,"ARG_OF_PERICENTER":95.3834,"MEAN_ANOMALY":264.7518,"EPHEMERIS_TYPE":0,"CLASSIFICATION_TYPE":"U","NORAD_CAT_ID":56079,"ELEMENT_SET_NO":999,"REV_AT_EPOCH":15062,"BSTAR":0.00016994000000000002,"MEAN_MOTION_DOT":7.7e-07,"MEAN_MOTION_DDOT":0.0},{"OBJECT_NAME":"ONEWEB-0651","OBJECT_ID":"2023-043AL","EPOCH":"2026-05-04T03:49:18.990912","MEAN_MOTION":13.1554908,"ECCENTRICITY":0.000201,"INCLINATION":87.896,"RA_OF_ASC_NODE":268.0002,"ARG_OF_PERICENTER":104.4273,"MEAN_ANOMALY":255.7081,"EPHEMERIS_TYPE":0,"CLASSIFICATION_TYPE":"U","NORAD_CAT_ID":56080,"ELEMENT_SET_NO":999,"REV_AT_EPOCH":15183,"BSTAR":0.00071581,"MEAN_MOTION_DOT":2.82e-06,"MEAN_MOTION_DDOT":0.0},{"OBJECT_NAME":"ONEWEB-0718","OBJECT_ID":"2023-043AM","EPOCH":"2026-05-04T03:42:29.007360","MEAN_MOTION":13.15547735,"ECCENTRICITY":0.0001332,"INCLINATION":87.8959,"RA_OF_ASC_NODE":267.9817,"ARG_OF_PERICENTER":104.8027,"MEAN_ANOMALY":255.3251,"EPHEMERIS_TYPE":0,"CLASSIFICATION_TYPE":"U","NORAD_CAT_ID":56081,"ELEMENT_SET_NO":999,"REV_AT_EPOCH":15064,"BSTAR":0.00031935000000000004,"MEAN_MOTION_DOT":1.33e-06,"MEAN_MOTION_DDOT":0.0},{"OBJECT_NAME":"ONEWEB-0561","OBJECT_ID":"2023-068A","EPOCH":"2026-05-03T21:07:15.741120","MEAN_MOTION":13.20769959,"ECCENTRICITY":0.0002221,"INCLINATION":87.9149,"RA_OF_ASC_NODE":283.283,"ARG_OF_PERICENTER":94.4274,"MEAN_ANOMALY":265.7113,"EPHEMERIS_TYPE":0,"CLASSIFICATION_TYPE":"U","NORAD_CAT_ID":56710,"ELEMENT_SET_NO":999,"REV_AT_EPOCH":14365,"BSTAR":7.0423e-05,"MEAN_MOTION_DOT":4.2e-07,"MEAN_MOTION_DDOT":0.0},{"OBJECT_NAME":"ONEWEB-0668","OBJECT_ID":"2023-068B","EPOCH":"2026-05-04T01:07:14.560320","MEAN_MOTION":13.16595007,"ECCENTRICITY":0.0001692,"INCLINATION":87.9097,"RA_OF_ASC_NODE":237.5356,"ARG_OF_PERICENTER":117.35,"MEAN_ANOMALY":242.7803,"EPHEMERIS_TYPE":0,"CLASSIFICATION_TYPE":"U","NORAD_CAT_ID":56711,"ELEMENT_SET_NO":999,"REV_AT_EPOCH":14597,"BSTAR":-0.00014591000000000002,"MEAN_MOTION_DOT":-4.3e-07,"MEAN_MOTION_DDOT":0.0},{"OBJECT_NAME":"ONEWEB-0676","OBJECT_ID":"2023-068C","EPOCH":"2026-05-04T01:18:39.095424","MEAN_MOTION":13.16592822,"ECCENTRICITY":0.0002322,"INCLINATION":87.9094,"RA_OF_ASC_NODE":237.5411,"ARG_OF_PERICENTER":103.8211,"MEAN_ANOMALY":256.3179,"EPHEMERIS_TYPE":0,"CLASSIFICATION_TYPE":"U","NORAD_CAT_ID":56712,"ELEMENT_SET_NO":999,"REV_AT_EPOCH":14589,"BSTAR":0.0004317,"MEAN_MOTION_DOT":1.78e-06,"MEAN_MOTION_DDOT":0.0},{"OBJECT_NAME":"ONEWEB-0677","OBJECT_ID":"2023-068D","EPOCH":"2026-05-04T04:07:42.776832","MEAN_MOTION":13.2077012,"ECCENTRICITY":0.0001939,"INCLINATION":87.9147,"RA_OF_ASC_NODE":283.2168,"ARG_OF_PERICENTER":107.9915,"MEAN_ANOMALY":252.143,"EPHEMERIS_TYPE":0,"CLASSIFICATION_TYPE":"U","NORAD_CAT_ID":56713,"ELEMENT_SET_NO":999,"REV_AT_EPOCH":14399,"BSTAR":4.1895e-05,"MEAN_MOTION_DOT":3e-07,"MEAN_MOTION_DDOT":0.0},{"OBJECT_NAME":"ONEWEB-0678","OBJECT_ID":"2023-068E","EPOCH":"2026-05-04T02:56:49.620192","MEAN_MOTION":13.15549395,"ECCENTRICITY":0.0001963,"INCLINATION":87.8971,"RA_OF_ASC_NODE":267.9758,"ARG_OF_PERICENTER":90.5066,"MEAN_ANOMALY":269.629,"EPHEMERIS_TYPE":0,"CLASSIFICATION_TYPE":"U","NORAD_CAT_ID":56714,"ELEMENT_SET_NO":999,"REV_AT_EPOCH":14349,"BSTAR":-0.00034987,"MEAN_MOTION_DOT":-1.19e-06,"MEAN_MOTION_DDOT":0.0},{"OBJECT_NAME":"ONEWEB-0679","OBJECT_ID":"2023-068F","EPOCH":"2026-05-04T00:19:22.105056","MEAN_MOTION":13.16595408,"ECCENTRICITY":0.0002132,"INCLINATION":87.9101,"RA_OF_ASC_NODE":237.5399,"ARG_OF_PERICENTER":117.9585,"MEAN_ANOMALY":242.1761,"EPHEMERIS_TYPE":0,"CLASSIFICATION_TYPE":"U","NORAD_CAT_ID":56715,"ELEMENT_SET_NO":999,"REV_AT_EPOCH":14591,"BSTAR":4.0557e-05,"MEAN_MOTION_DOT":2.8e-07,"MEAN_MOTION_DDOT":0.0},{"OBJECT_NAME":"ONEWEB-0680","OBJECT_ID":"2023-068G","EPOCH":"2026-05-04T02:47:27.164832","MEAN_MOTION":13.21824355,"ECCENTRICITY":0.0001791,"INCLINATION":87.9239,"RA_OF_ASC_NODE":252.7399,"ARG_OF_PERICENTER":117.3617,"MEAN_ANOMALY":242.7699,"EPHEMERIS_TYPE":0,"CLASSIFICATION_TYPE":"U","NORAD_CAT_ID":56716,"ELEMENT_SET_NO":999,"REV_AT_EPOCH":14527,"BSTAR":-2.9986000000000004e-05,"MEAN_MOTION_DOT":1e-08,"MEAN_MOTION_DDOT":0.0},{"OBJECT_NAME":"ONEWEB-0681","OBJECT_ID":"2023-068H","EPOCH":"2026-05-04T02:19:34.093632","MEAN_MOTION":13.2182851,"ECCENTRICITY":0.0002925,"INCLINATION":87.9229,"RA_OF_ASC_NODE":252.7473,"ARG_OF_PERICENTER":104.0176,"MEAN_ANOMALY":256.1284,"EPHEMERIS_TYPE":0,"CLASSIFICATION_TYPE":"U","NORAD_CAT_ID":56717,"ELEMENT_SET_NO":999,"REV_AT_EPOCH":14526,"BSTAR":-0.00018249000000000002,"MEAN_MOTION_DOT":-6.2e-07,"MEAN_MOTION_DDOT":0.0},{"OBJECT_NAME":"ONEWEB-0682","OBJECT_ID":"2023-068J","EPOCH":"2026-05-04T03:31:02.135136","MEAN_MOTION":13.15550053,"ECCENTRICITY":0.0001684,"INCLINATION":87.8966,"RA_OF_ASC_NODE":267.9727,"ARG_OF_PERICENTER":116.3467,"MEAN_ANOMALY":243.7837,"EPHEMERIS_TYPE":0,"CLASSIFICATION_TYPE":"U","NORAD_CAT_ID":56718,"ELEMENT_SET_NO":999,"REV_AT_EPOCH":14366,"BSTAR":0.00027833999999999997,"MEAN_MOTION_DOT":1.18e-06,"MEAN_MOTION_DDOT":0.0}]